GLOBALSTAR M057         
1 25943U 99058A   25253.80053467 -.00000091  00000+0  17058-4 0  9999
2 25943  51.9977 105.2329 0002412 171.2482 188.8410 12.24826736177421
GLOBALSTAR M059         
1 25944U 99058B   25253.82688826 -.00000007  00000+0  98302-3 0  9992
2 25944  52.0046 335.4918 0000945 120.4220  41.8051 11.99985608584322
GLOBALSTAR M056         
1 25945U 99058C   25253.72886916 -.00000082  00000+0  59321-4 0  9994
2 25945  51.9992 335.5221 0000747  25.4939 114.4311 12.04779062172938
GLOBALSTAR M031         
1 25946U 99058D   25253.67368786 -.00000045  00000+0  46265-3 0  9990
2 25946  51.9947 222.8812 0001579   1.3100 169.8590 12.16040241174949
GLOBALSTAR M039         
1 25961U 99062A   25253.75856105 -.00000069  00000+0  19348-3 0  9996
2 25961  51.9874   8.0810 0002925 163.9848 196.1111 12.62331906191029
GLOBALSTAR M034         
1 25962U 99062B   25253.48508133 -.00000091  00000+0 -15993-3 0  9990
2 25962  51.9866 149.6615 0013524 201.1299 329.5274 11.79448283148453
GLOBALSTAR M029         
1 25963U 99062C   25253.67738973 -.00000073  00000+0  16385-3 0  9994
2 25963  51.9782 223.8563 0002464 293.7532 237.6913 11.99900774179381
GLOBALSTAR M061         
1 25964U 99062D   25253.76303225 -.00000024  00000+0  91874-3 0  9995
2 25964  51.9826 334.1126 0006444 125.5991  22.8616 11.76776186131256
